{"type": "FeatureCollection", "features": [ {"type": "Feature", "properties": {"norad_id": 40118, "name": "GAOFEN-2", "group": "resource", "lat": -49.69008649636736, "lon": -135.24091196285747, "alt_km": 639.0071618705306, "timestamp": "2025-12-21T03:56:50.511712+00:00", "meta": {"OBJECT_NAME": "GAOFEN-2", "OBJECT_ID": "2014-049A", "EPOCH": "2025-12-20T20:25:24.360960", "MEAN_MOTION": 14.80619892, "ECCENTRICITY": 0.0008729, "INCLINATION": 98.038, "RA_OF_ASC_NODE": 54.0336, "ARG_OF_PERICENTER": 90.4794, "MEAN_ANOMALY": 269.7418, "EPHEMERIS_TYPE": 0, "CLASSIFICATION_TYPE": "U", "NORAD_CAT_ID": 40118, "ELEMENT_SET_NO": 999, "REV_AT_EPOCH": 61284, "BSTAR": 2.2122e-05, "MEAN_MOTION_DOT": 1.16e-06, "MEAN_MOTION_DDOT": 0}, "tle": {"line1": "1 40118U 14049A   25354.85097640  .00000116  00000+0  22122-4 0  9990", "line2": "2 40118  98.0380  54.0336 0008729  90.4794 269.7418 14.80619892612840"}}, "geometry": {"type": "Point", "coordinates": [-135.24091196285747, -49.69008649636736]}}, {"type": "Feature", "properties": {"norad_id": 40143, "name": "YAOGAN-21", "group": "resource", "lat": 57.76126223491693, "lon": 26.589656602952992, "alt_km": 484.5681473036675, "timestamp": "2025-12-21T03:56:50.511722+00:00", "meta": {"OBJECT_NAME": "YAOGAN-21", "OBJECT_ID": "2014-053A", "EPOCH": "2025-12-20T21:23:15.771264", "MEAN_MOTION": 15.23748439, "ECCENTRICITY": 0.0008998, "INCLINATION": 97.1747, "RA_OF_ASC_NODE": 37.8497, "ARG_OF_PERICENTER": 15.6234, "MEAN_ANOMALY": 344.5279, "EPHEMERIS_TYPE": 0, "CLASSIFICATION_TYPE": "U", "NORAD_CAT_ID": 40143, "ELEMENT_SET_NO": 999, "REV_AT_EPOCH": 62778, "BSTAR": 7.1695e-05, "MEAN_MOTION_DOT": 1.658e-05, "MEAN_MOTION_DDOT": 0}, "tle": {"line1": "1 40143U 14053A   25354.89115476  .00001658  00000+0  71695-4 0  9996", "line2": "2 40143  97.1747  37.8497 0008998  15.6234 344.5279 15.23748439627782"}}, "geometry": {"type": "Point", "coordinates": [26.589656602952992, 57.76126223491693]}}, {"type": "Feature", "properties": {"norad_id": 40275, "name": "YAOGAN-22", "group": "resource", "lat": 67.20546812259163, "lon": 111.84896617327804, "alt_km": 1199.449572277379, "timestamp": "2025-12-21T03:56:50.511732+00:00", "meta": {"OBJECT_NAME": "YAOGAN-22", "OBJECT_ID": "2014-063A", "EPOCH": "2025-12-20T16:38:31.747200", "MEAN_MOTION": 13.15522924, "ECCENTRICITY": 0.0006025, "INCLINATION": 100.7427, "RA_OF_ASC_NODE": 138.2253, "ARG_OF_PERICENTER": 229.0888, "MEAN_ANOMALY": 130.9702, "EPHEMERIS_TYPE": 0, "CLASSIFICATION_TYPE": "U", "NORAD_CAT_ID": 40275, "ELEMENT_SET_NO": 999, "REV_AT_EPOCH": 53634, "BSTAR": 1.3459e-05, "MEAN_MOTION_DOT": -4.2e-07, "MEAN_MOTION_DDOT": 0}, "tle": {"line1": "1 40275U 14063A   25354.69342300 -.00000042  00000+0  13459-4 0  9990", "line2": "2 40275 100.7427 138.2253 0006025 229.0888 130.9702 13.15522924536342"}}, "geometry": {"type": "Point", "coordinates": [111.84896617327804, 67.20546812259163]}}, {"type": "Feature", "properties": {"norad_id": 40298, "name": "ASNARO", "group": "resource", "lat": -18.8697441807187, "lon": 73.43945589414787, "alt_km": 513.9048256675724, "timestamp": "2025-12-21T03:56:50.511741+00:00", "meta": {"OBJECT_NAME": "ASNARO", "OBJECT_ID": "2014-070A", "EPOCH": "2025-12-20T20:07:45.585120", "MEAN_MOTION": 15.19644443, "ECCENTRICITY": 0.0005696, "INCLINATION": 97.3648, "RA_OF_ASC_NODE": 70.5879, "ARG_OF_PERICENTER": 99.9701, "MEAN_ANOMALY": 260.2177, "EPHEMERIS_TYPE": 0, "CLASSIFICATION_TYPE": "U", "NORAD_CAT_ID": 40298, "ELEMENT_SET_NO": 999, "REV_AT_EPOCH": 61692, "BSTAR": 0.00026397, "MEAN_MOTION_DOT": 5.563e-05, "MEAN_MOTION_DDOT": 0}, "tle": {"line1": "1 40298U 14070A   25354.83872205  .00005563  00000+0  26397-3 0  9997", "line2": "2 40298  97.3648  70.5879 0005696  99.9701 260.2177 15.19644443616929"}}, "geometry": {"type": "Point", "coordinates": [73.43945589414787, -18.8697441807187]}}, {"type": "Feature", "properties": {"norad_id": 40310, "name": "YAOGAN-24", "group": "resource", "lat": 76.91314850031442, "lon": 88.39730896578524, "alt_km": 625.1934763780546, "timestamp": "2025-12-21T03:56:50.511750+00:00", "meta": {"OBJECT_NAME": "YAOGAN-24", "OBJECT_ID": "2014-072A", "EPOCH": "2025-12-20T21:04:50.861280", "MEAN_MOTION": 14.76194453, "ECCENTRICITY": 0.0015115, "INCLINATION": 98.1225, "RA_OF_ASC_NODE": 126.0152, "ARG_OF_PERICENTER": 113.5227, "MEAN_ANOMALY": 246.7572, "EPHEMERIS_TYPE": 0, "CLASSIFICATION_TYPE": "U", "NORAD_CAT_ID": 40310, "ELEMENT_SET_NO": 999, "REV_AT_EPOCH": 59741, "BSTAR": 0.00018243, "MEAN_MOTION_DOT": 1.211e-05, "MEAN_MOTION_DDOT": 0}, "tle": {"line1": "1 40310U 14072A   25354.87836645  .00001211  00000+0  18243-3 0  9993", "line2": "2 40310  98.1225 126.0152 0015115 113.5227 246.7572 14.76194453597411"}}, "geometry": {"type": "Point", "coordinates": [88.39730896578524, 76.91314850031442]}}, {"type": "Feature", "properties": {"norad_id": 40336, "name": "CBERS 4", "group": "resource", "lat": 28.332895414146435, "lon": 48.362040078243794, "alt_km": 771.6786550161578, "timestamp": "2025-12-21T03:56:50.511760+00:00", "meta": {"OBJECT_NAME": "CBERS 4", "OBJECT_ID": "2014-079A", "EPOCH": "2025-12-20T21:07:22.525248", "MEAN_MOTION": 14.35519475, "ECCENTRICITY": 0.0001811, "INCLINATION": 98.3303, "RA_OF_ASC_NODE": 52.6186, "ARG_OF_PERICENTER": 103.1613, "MEAN_ANOMALY": 256.9775, "EPHEMERIS_TYPE": 0, "CLASSIFICATION_TYPE": "U", "NORAD_CAT_ID": 40336, "ELEMENT_SET_NO": 999, "REV_AT_EPOCH": 57837, "BSTAR": -4.4301e-05, "MEAN_MOTION_DOT": -1.69e-06, "MEAN_MOTION_DDOT": 0}, "tle": {"line1": "1 40336U 14079A   25354.88012182 -.00000169  00000+0 -44301-4 0  9999", "line2": "2 40336  98.3303  52.6186 0001811 103.1613 256.9775 14.35519475578373"}}, "geometry": {"type": "Point", "coordinates": [48.362040078243794, 28.332895414146435]}}, {"type": "Feature", "properties": {"norad_id": 40362, "name": "YAOGAN-26", "group": "resource", "lat": -68.28851493113547, "lon": 157.39406201731708, "alt_km": 456.1737843584251, "timestamp": "2025-12-21T03:56:50.511769+00:00", "meta": {"OBJECT_NAME": "YAOGAN-26", "OBJECT_ID": "2014-088A", "EPOCH": "2025-12-20T20:37:39.112608", "MEAN_MOTION": 15.39558341, "ECCENTRICITY": 0.0005026, "INCLINATION": 97.0637, "RA_OF_ASC_NODE": 355.2446, "ARG_OF_PERICENTER": 5.9684, "MEAN_ANOMALY": 354.1621, "EPHEMERIS_TYPE": 0, "CLASSIFICATION_TYPE": "U", "NORAD_CAT_ID": 40362, "ELEMENT_SET_NO": 999, "REV_AT_EPOCH": 61019, "BSTAR": 0.00021814, "MEAN_MOTION_DOT": 8.503e-05, "MEAN_MOTION_DDOT": 0}, "tle": {"line1": "1 40362U 14088A   25354.85948047  .00008503  00000+0  21814-3 0  9994", "line2": "2 40362  97.0637 355.2446 0005026   5.9684 354.1621 15.39558341610196"}}, "geometry": {"type": "Point", "coordinates": [157.39406201731708, -68.28851493113547]}}, {"type": "Feature", "properties": {"norad_id": 40376, "name": "SMAP", "group": "resource", "lat": -5.686723205543856, "lon": 0.5823816149867569, "alt_km": 686.1574602950222, "timestamp": "2025-12-21T03:56:50.511779+00:00", "meta": {"OBJECT_NAME": "SMAP", "OBJECT_ID": "2015-003A", "EPOCH": "2025-12-20T19:46:05.945952", "MEAN_MOTION": 14.63354143, "ECCENTRICITY": 0.0001226, "INCLINATION": 98.1288, "RA_OF_ASC_NODE": 359.431, "ARG_OF_PERICENTER": 91.4983, "MEAN_ANOMALY": 268.6359, "EPHEMERIS_TYPE": 0, "CLASSIFICATION_TYPE": "U", "NORAD_CAT_ID": 40376, "ELEMENT_SET_NO": 999, "REV_AT_EPOCH": 58153, "BSTAR": 7.6853e-05, "MEAN_MOTION_DOT": 3.5e-06, "MEAN_MOTION_DDOT": 0}, "tle": {"line1": "1 40376U 15003A   25354.82367993  .00000350  00000+0  76853-4 0  9995", "line2": "2 40376  98.1288 359.4310 0001226  91.4983 268.6359 14.63354143581533"}}, "geometry": {"type": "Point", "coordinates": [0.5823816149867569, -5.686723205543856]}}, {"type": "Feature", "properties": {"norad_id": 40536, "name": "KOMPSAT-3A", "group": "resource", "lat": -28.671660153939065, "lon": -25.79063763461207, "alt_km": 442.31361980973725, "timestamp": "2025-12-21T03:56:50.511788+00:00", "meta": {"OBJECT_NAME": "KOMPSAT-3A", "OBJECT_ID": "2015-014A", "EPOCH": "2025-12-20T21:51:06.572736", "MEAN_MOTION": 15.44222114, "ECCENTRICITY": 0.0005471, "INCLINATION": 97.6794, "RA_OF_ASC_NODE": 329.7096, "ARG_OF_PERICENTER": 108.6278, "MEAN_ANOMALY": 251.5564, "EPHEMERIS_TYPE": 0, "CLASSIFICATION_TYPE": "U", "NORAD_CAT_ID": 40536, "ELEMENT_SET_NO": 999, "REV_AT_EPOCH": 59421, "BSTAR": 0.00028314, "MEAN_MOTION_DOT": 0.00012919, "MEAN_MOTION_DDOT": 0}, "tle": {"line1": "1 40536U 15014A   25354.91049274  .00012919  00000+0  28314-3 0  9996", "line2": "2 40536  97.6794 329.7096 0005471 108.6278 251.5564 15.44222114594212"}}, "geometry": {"type": "Point", "coordinates": [-25.79063763461207, -28.671660153939065]}}, {"type": "Feature", "properties": {"norad_id": 40697, "name": "SENTINEL-2A", "group": "resource", "lat": -41.99010728175172, "lon": 75.38384364090825, "alt_km": 796.0888520178178, "timestamp": "2025-12-21T03:56:50.511797+00:00", "meta": {"OBJECT_NAME": "SENTINEL-2A", "OBJECT_ID": "2015-028A", "EPOCH": "2025-12-20T19:45:15.568704", "MEAN_MOTION": 14.30808248, "ECCENTRICITY": 0.0001071, "INCLINATION": 98.5744, "RA_OF_ASC_NODE": 67.2422, "ARG_OF_PERICENTER": 88.325, "MEAN_ANOMALY": 271.8055, "EPHEMERIS_TYPE": 0, "CLASSIFICATION_TYPE": "U", "NORAD_CAT_ID": 40697, "ELEMENT_SET_NO": 999, "REV_AT_EPOCH": 54822, "BSTAR": 6.4986e-05, "MEAN_MOTION_DOT": 1.27e-06, "MEAN_MOTION_DDOT": 0}, "tle": {"line1": "1 40697U 15028A   25354.82309686  .00000127  00000+0  64986-4 0  9999", "line2": "2 40697  98.5744  67.2422 0001071  88.3250 271.8055 14.30808248548220"}}, "geometry": {"type": "Point", "coordinates": [75.38384364090825, -41.99010728175172]}}]}